[{"OBJECT_NAME":"IRIS","OBJECT_ID":"2013-033A","EPOCH":"2026-03-09T13:26:21.239520","MEAN_MOTION":14.85645982,"ECCENTRICITY":0.00232612,"INCLINATION":97.9395,"RA_OF_ASC_NODE":268.1167,"ARG_OF_PERICENTER":285.8728,"MEAN_ANOMALY":73.9923,"EPHEMERIS_TYPE":0,"CLASSIFICATION_TYPE":"U","NORAD_CAT_ID":39197,"ELEMENT_SET_NO":999,"REV_AT_EPOCH":68558,"BSTAR":0.00024024039,"MEAN_MOTION_DOT":2.035e-5,"MEAN_MOTION_DDOT":0},{"OBJECT_NAME":"DELTA 1 DEB","OBJECT_ID":"1977-065GG","EPOCH":"2026-03-09T13:57:52.096608","MEAN_MOTION":13.93281751,"ECCENTRICITY":0.0415927,"INCLINATION":29.1152,"RA_OF_ASC_NODE":220.7577,"ARG_OF_PERICENTER":8.3779,"MEAN_ANOMALY":60.8159,"EPHEMERIS_TYPE":0,"CLASSIFICATION_TYPE":"U","NORAD_CAT_ID":27575,"ELEMENT_SET_NO":999,"REV_AT_EPOCH":37780,"BSTAR":0.0012328,"MEAN_MOTION_DOT":3.44e-5,"MEAN_MOTION_DDOT":0}]
